EYESAT-1 (AO-27)        
1 22825U 93061C   17273.49694127  .00000034  00000-0  30991-4 0  9993
2 22825  98.8253 240.4386 0008985  30.5931 329.5773 14.30007827252450
CUTE-1 (CO-55)          
1 27844U 03031E   17273.54588286  .00000104  00000-0  66836-4 0  9996
2 27844  98.6908 281.0230 0010601  47.4217 312.7854 14.22062900739292
CUBESAT XI-IV (CO-57)   
1 27848U 03031J   17273.85581345  .00000094  00000-0  62507-4 0  9992
2 27848  98.6999 281.6313 0010587  55.6270 304.5907 14.21674491739210
CUBESAT XI 5            
1 28895U 05043F   17273.40129807  .00000331  00000-0  72461-4 0  9996
2 28895  97.8773  70.9222 0017172 166.5258 193.6407 14.63444734635877
CUTE-1.7+APD II (CO-65) 
1 32785U 08021C   17273.55534527  .00000543  00000-0  64841-4 0  9991
2 32785  97.5620 292.9914 0013285 172.6966 187.4447 14.87962565510563
COMPASS-1               
1 32787U 08021E   17273.59745358  .00000821  00000-0  84585-4 0  9999
2 32787  97.5526 302.5446 0013569 141.1934 219.0263 14.92733381511173
AAUSAT-II               
1 32788U 08021F   17273.59174943  .00001171  00000-0  11476-3 0  9993
2 32788  97.5507 305.5628 0013111 133.2104 227.0214 14.94020346511315
DELFI-C3 (DO-64)        
1 32789U 08021G   17273.80329478  .00002693  00000-0  19232-3 0  9991
2 32789  97.5491 329.7701 0014512 102.0140 258.2714 15.05257693512758
CANX-2                  
1 32790U 08021H   17273.55463635  .00000476  00000-0  57896-4 0  9995
2 32790  97.5605 291.2976 0013927 174.7829 185.3536 14.87681960510503
SEEDS II (CO-66)        
1 32791U 08021J   17273.52515708  .00000724  00000-0  79828-4 0  9997
2 32791  97.5575 297.6470 0014061 156.8938 203.2916 14.90327136510835
SWISSCUBE               
1 35932U 09051B   17273.82729975  .00000315  00000-0  82422-4 0  9997
2 35932  98.5109  54.3147 0006520 288.8397  71.2093 14.56059438425691
BEESAT                  
1 35933U 09051C   17273.39284673  .00000255  00000-0  68750-4 0  9992
2 35933  98.5147  55.2506 0004850 307.9964  52.0795 14.56173519425659
ITUPSAT 1               
1 35935U 09051E   17273.37055373  .00000212  00000-0  59904-4 0  9999
2 35935  98.5260  55.4822 0007102 298.8691  61.1793 14.55362591425533
TISAT 1                 
1 36799U 10035E   17273.34467143  .00000988  00000-0  10718-3 0  9990
2 36799  98.0743  38.2840 0011951 348.0626  12.0306 14.90520037391442
M-CUBED & EXP-1 PRIME   
1 37855U 11061F   17273.49419642  .00003099  00000-0  16767-3 0  9997
2 37855 101.7043 198.3931 0179667 130.3163 231.3903 15.03404743322147
HORYU 2                 
1 38340U 12025D   17273.54779072  .00000493  00000-0  80769-4 0  9999
2 38340  98.3787 281.1949 0010816 322.3708  37.6742 14.75407096288827
STRAND-1                
1 39090U 13009E   17273.51990711  .00000065  00000-0  38276-4 0  9998
2 39090  98.5444 117.9243 0009158 355.3195   4.7903 14.34985493240580
BRITE-AUSTRIA           
1 39091U 13009F   17273.52981261  .00000046  00000-0  31640-4 0  9997
2 39091  98.5410 117.2877 0010594   2.0858 358.0370 14.35042460240591
UNIBRITE                
1 39092U 13009G   17273.81729546  .00000040  00000-0  29586-4 0  9996
2 39092  98.5420 117.2531 0009310 355.3929   4.7169 14.34916607240624
AIST-2                  
1 39133U 13015D   17273.80504144  .00000566  00000-0  52494-4 0  9990
2 39133  64.8733 311.7576 0038158 264.3021  95.3747 15.04371684244188
SOMP                    
1 39134U 13015E   17273.43145389  .00003850  00000-0  19350-3 0  9994
2 39134  64.8650 246.6511 0038553 247.4850 112.2194 15.18219497245075
BEESAT-3                
1 39135U 13015F   17273.56809411  .00003591  00000-0  19409-3 0  9999
2 39135  64.8702 256.2961 0034116 266.8601  92.8621 15.15911025244890
BEESAT-2                
1 39136U 13015G   17273.44910662  .00002979  00000-0  16509-3 0  9995
2 39136  64.8704 258.7854 0033916 267.5095  92.2147 15.15411131244837
NEE-01 PEGASUS          
1 39151U 13018B   17273.79294419  .00000412  00000-0  61627-4 0  9990
2 39151  97.9827   4.6443 0018413  70.5418 289.7781 14.79774987239151
CUBEBUG-1 (CAPITAN BETO)
1 39153U 13018D   17273.81739626  .00000497  00000-0  72104-4 0  9994
2 39153  97.9852   5.5524 0018294  68.6071 291.7090 14.80244875239214
ESTCUBE 1               
1 39161U 13021C   17273.70291508  .00000191  00000-0  38328-4 0  9998
2 39161  98.0244 358.3160 0010356 158.4928 201.6704 14.71948574236277
POPACS 1                
1 39268U 13055D   17273.28121393  .00006205  00000-0  18019-3 0  9996
2 39268  81.0019 258.4420 0645658 271.2209  81.5131 14.32040097205759
POPACS 2                
1 39269U 13055E   17272.96469474  .00007114  00000-0  21193-3 0  9993
2 39269  81.0141 275.5617 0696941 315.9718  38.7904 14.20698894204950
POPACS 3                
1 39270U 13055F   17273.03186468  .00004105  00000-0  13025-3 0  9995
2 39270  81.0158 284.7159 0723213 343.5848  14.2951 14.13703802205586
FIREFLY                 
1 39404U 13064AA  17273.56409615  .00228386  25868-4  64233-3 0  9993
2 39404  40.4930 351.7047 0007667  94.0696 266.1014 15.92663608214350
ZACUBE-1 (TSHEPISOSAT)  
1 39417U 13066B   17273.57760761  .00000476  00000-0  66730-4 0  9992
2 39417  97.6198 310.6545 0057782 285.5424  73.9414 14.80778809208379
WNISAT-1                
1 39423U 13066H   17273.85053396  .00000182  00000-0  45003-4 0  9993
2 39423  97.6933 253.5303 0177028 107.5958 254.4678 14.52874530204574
TRITON-1                
1 39427U 13066M   17273.60450215  .00000576  00000-0  10007-3 0  9993
2 39427  97.6375 281.8948 0114563  11.8318 348.5538 14.67522498206312
GOMX 1                  
1 39430U 13066Q   17273.86375860  .00000570  00000-0  11184-3 0  9998
2 39430  97.6720 264.8803 0153255  69.5033 292.2543 14.58928907205344
BRITE-PL                
1 39431U 13066R   17273.85879975  .00000161  00000-0  43971-4 0  9990
2 39431  97.7190 242.3094 0203322 148.3046 213.0580 14.46870631203731
HUMSAT-D                
1 39433U 13066T   17273.71784706  .00001267  00000-0  13082-3 0  9991
2 39433  97.6420 333.6658 0030180 224.1724 135.7085 14.91565111209745
EAGLE 2                 
1 39436U 13066W   17273.81957066  .00067194  00000-0  14915-2 0  9992
2 39436  97.7121  25.3178 0007957  65.2330 294.9744 15.43445870212901
CUBEBUG-2 (LO-74)       
1 39440U 13066AA  17273.63079163  .00000493  00000-0  76126-4 0  9993
2 39440  97.6220 299.0686 0079651 319.0681  40.4566 14.75519980207647
NEE-02 KRYSAOR          
1 39441U 13066AB  17273.63037487  .00000342  00000-0  55957-4 0  9999
2 39441  97.6205 297.6229 0081149 323.0928  36.4713 14.74668370207525
FUNCUBE-1 (AO-73)       
1 39444U 13066AE  17273.57225707  .00000591  00000-0  79895-4 0  9992
2 39444  97.6213 311.8393 0056941 281.8473  77.6358 14.81526148206622
UWE-3                   
1 39446U 13066AG  17273.55640393  .00000490  00000-0  72204-4 0  9999
2 39446  97.6197 304.5003 0069068 302.8630  56.5946 14.78052107206179
BRITE-TORONTO           
1 40020U 14033L   17273.86866544  .00000173  00000-0  38112-4 0  9994
2 40020  97.8193 139.8144 0087480 351.6889   8.2862 14.66425122175576
DUCHIFAT-1              
1 40021U 14033M   17273.73664343  .00001063  00000-0  11604-3 0  9999
2 40021  97.9129 187.0291 0012200 319.4621  40.5687 14.90016700178313
FLOCK 1C-10             
1 40023U 14033P   17273.71694778  .00001986  00000-0  21747-3 0  9997
2 40023  97.9179 185.9489 0012977 327.2436  32.7914 14.88886842178201
NANOSATC-BR1            
1 40024U 14033Q   17273.71979356  .00000966  00000-0  10777-3 0  9994
2 40024  97.9081 185.7299 0011505 321.2012  38.8378 14.89324060178257
QB50P1                  
1 40025U 14033R   17273.55454341  .00000794  00000-0  91392-4 0  9991
2 40025  97.9059 184.4468 0011777 325.1651  34.8794 14.88509870177654
FLOCK 1C-7              
1 40026U 14033S   17273.74884779  .00000816  00000-0  91307-4 0  9996
2 40026  97.9173 186.8427 0010839 324.1056  35.9414 14.89620887178261
FLOCK 1C-1              
1 40027U 14033T   17273.74773213  .00000945  00000-0  10649-3 0  9999
2 40027  97.9165 186.2358 0012259 323.7121  36.3325 14.88946548178222
POPSAT-HIP-1            
1 40028U 14033U   17273.79708004  .00000904  00000-0  10359-3 0  9994
2 40028  97.9083 184.9954 0013126 322.7257  37.3058 14.88377484178188
FLOCK 1C-2              
1 40029U 14033V   17273.70823526  .00002324  00000-0  25293-3 0  9994
2 40029  97.9155 186.0452 0013874 320.4334  39.5859 14.88964498178209
FLOCK 1C-4              
1 40031U 14033X   17273.73525898  .00001528  00000-0  16895-3 0  9994
2 40031  97.9157 186.0344 0013842 318.4369  41.5758 14.88814978178190
QB50P2                  
1 40032U 14033Y   17273.29713847  .00000719  00000-0  84232-4 0  9991
2 40032  97.9027 183.1984 0011083 320.9812  39.0603 14.88063129177555
FLOCK 1C-11             
1 40033U 14033Z   17273.82218024  .00000001  00000-0  60387-5 0  9998
2 40033  97.9172 187.7844 0011387 310.7334  49.2903 14.90275489178324
ANTELSAT                
1 40034U 14033AA  17273.59102436  .00000513  00000-0  84237-4 0  9999
2 40034  97.8431 154.1717 0058130 315.0352  44.6157 14.73765049175913
FLOCK 1C-9              
1 40035U 14033AB  17273.76018851  .00001013  00000-0  11356-3 0  9993
2 40035  97.9211 186.5045 0011470 313.0626  46.9659 14.89018890178212
FLOCK 1C-6              
1 40036U 14033AC  17273.70649407  .00001835  00000-0  20025-3 0  9990
2 40036  97.9164 186.6862 0011819 314.6820  45.3341 14.89126392178227
PERSEUS-M2              
1 40037U 14033AD  17273.82697371  .00000292  00000-0  39488-4 0  9997
2 40037  97.9040 182.0128 0013614 324.6201  35.4110 14.86266363178005
FLOCK 1C-5              
1 40038U 14033AE  17273.71485433  .00002615  00000-0  28282-3 0  9990
2 40038  97.9189 186.4846 0013814 313.4933  46.5131 14.89105775178216
PERSEUS-M1              
1 40039U 14033AF  17273.58407729  .00000305  00000-0  41279-4 0  9994
2 40039  97.9045 181.2811 0013399 321.5170  38.5088 14.85889618177418
